{
  "type": "FeatureCollection",
  "features": [
    {
      "type": "Feature",
      "properties": {
        "norad_id": 19071,
        "name": "OSCAR 32",
        "group": "nnss",
        "lat": 2.2682818382510597,
        "lon": -163.62605185812606,
        "alt_km": 1015.8763510820145,
        "timestamp": "2025-12-07T11:27:50.270748+00:00",
        "meta_object_name": "OSCAR 32",
        "meta_object_id": "1988-033B",
        "meta_epoch": "2025-12-06T20:58:38.516160",
        "meta_mean_motion": 13.27952901,
        "meta_eccentricity": 0.01878652,
        "meta_inclination": 90.3222,
        "meta_ra_of_asc_node": 16.3423,
        "meta_arg_of_pericenter": 183.0967,
        "meta_mean_anomaly": 350.713,
        "meta_ephemeris_type": 0,
        "meta_classification_type": "U",
        "meta_norad_cat_id": 19071,
        "meta_element_set_no": 999,
        "meta_rev_at_epoch": 82187,
        "meta_bstar": 0.00020299804,
        "meta_mean_motion_dot": 1.09e-06,
        "meta_mean_motion_ddot": 0,
        "tle_line1": "1 19071U 88033B   25340.87405690  .00000109  00000+0  20300-3 0  9990",
        "tle_line2": "2 19071  90.3222  16.3423 0187865 183.0967 350.7130 13.27952901821870"
      },
      "geometry": {
        "type": "Point",
        "coordinates": [
          -163.62605185812606,
          2.2682818382510597
        ]
      }
    },
    {
      "type": "Feature",
      "properties": {
        "norad_id": 19223,
        "name": "NOVA 2",
        "group": "nnss",
        "lat": 69.7063281890856,
        "lon": -101.75605233179138,
        "alt_km": 1162.3977817394089,
        "timestamp": "2025-12-07T11:27:50.270758+00:00",
        "meta_object_name": "NOVA 2",
        "meta_object_id": "1988-052A",
        "meta_epoch": "2025-12-06T21:00:33.391872",
        "meta_mean_motion": 13.22934949,
        "meta_eccentricity": 0.00310667,
        "meta_inclination": 89.9871,
        "meta_ra_of_asc_node": 78.2796,
        "meta_arg_of_pericenter": 32.72,
        "meta_mean_anomaly": 90.4569,
        "meta_ephemeris_type": 0,
        "meta_classification_type": "U",
        "meta_norad_cat_id": 19223,
        "meta_element_set_no": 999,
        "meta_rev_at_epoch": 80870,
        "meta_bstar": 0.00030066884,
        "meta_mean_motion_dot": 1.35e-06,
        "meta_mean_motion_ddot": 0,
        "tle_line1": "1 19223U 88052A   25340.87538648  .00000135  00000+0  30067-3 0  9990",
        "tle_line2": "2 19223  89.9871  78.2796 0031066  32.7200  90.4569 13.22934949808702"
      },
      "geometry": {
        "type": "Point",
        "coordinates": [
          -101.75605233179138,
          69.7063281890856
        ]
      }
    },
    {
      "type": "Feature",
      "properties": {
        "norad_id": 19419,
        "name": "OSCAR 25",
        "group": "nnss",
        "lat": 7.296986474097378,
        "lon": -159.7685991245751,
        "alt_km": 1099.0616780078035,
        "timestamp": "2025-12-07T11:27:50.270768+00:00",
        "meta_object_name": "OSCAR 25",
        "meta_object_id": "1988-074A",
        "meta_epoch": "2025-12-06T15:31:01.635744",
        "meta_mean_motion": 13.42621671,
        "meta_eccentricity": 0.00942628,
        "meta_inclination": 90.0351,
        "meta_ra_of_asc_node": 20.224,
        "meta_arg_of_pericenter": 263.541,
        "meta_mean_anomaly": 215.3416,
        "meta_ephemeris_type": 0,
        "meta_classification_type": "U",
        "meta_norad_cat_id": 19419,
        "meta_element_set_no": 999,
        "meta_rev_at_epoch": 82558,
        "meta_bstar": 0.00027999052,
        "meta_mean_motion_dot": 1.71e-06,
        "meta_mean_motion_ddot": 0,
        "tle_line1": "1 19419U 88074A   25340.64654671  .00000171  00000+0  27999-3 0  9991",
        "tle_line2": "2 19419  90.0351  20.2240 0094262 263.5410 215.3416 13.42621671825581"
      },
      "geometry": {
        "type": "Point",
        "coordinates": [
          -159.7685991245751,
          7.296986474097378
        ]
      }
    },
    {
      "type": "Feature",
      "properties": {
        "norad_id": 19420,
        "name": "OSCAR 31",
        "group": "nnss",
        "lat": 58.42498976785352,
        "lon": 20.51608365132837,
        "alt_km": 1160.3104978667652,
        "timestamp": "2025-12-07T11:27:50.270779+00:00",
        "meta_object_name": "OSCAR 31",
        "meta_object_id": "1988-074B",
        "meta_epoch": "2025-12-06T21:44:07.533600",
        "meta_mean_motion": 13.42583215,
        "meta_eccentricity": 0.00925313,
        "meta_inclination": 90.0368,
        "meta_ra_of_asc_node": 20.5739,
        "meta_arg_of_pericenter": 256.8957,
        "meta_mean_anomaly": 278.1525,
        "meta_ephemeris_type": 0,
        "meta_classification_type": "U",
        "meta_norad_cat_id": 19420,
        "meta_element_set_no": 999,
        "meta_rev_at_epoch": 82572,
        "meta_bstar": 0.00022722958,
        "meta_mean_motion_dot": 1.4e-06,
        "meta_mean_motion_ddot": 0,
        "tle_line1": "1 19420U 88074B   25340.90564275  .00000140  00000+0  22723-3 0  9998",
        "tle_line2": "2 19420  90.0368  20.5739 0092531 256.8957 278.1525 13.42583215825720"
      },
      "geometry": {
        "type": "Point",
        "coordinates": [
          20.51608365132837,
          58.42498976785352
        ]
      }
    }
  ]
}